[
  {
    "OBJECT_NAME": "STARLINK-30812",
    "OBJECT_ID": "23166U",
    "EPOCH": "2025-11-11T06:42:44.575776",
    "MEAN_MOTION": 15.30216786,
    "ECCENTRICITY": 0.0001757,
    "INCLINATION": 53.1595,
    "RA_OF_ASC_NODE": 49.3739,
    "ARG_OF_PERICENTER": 78.8878,
    "MEAN_ANOMALY": 281.232,
    "EPHEMERIS_TYPE": 0,
    "CLASSIFICATION_TYPE": "U",
    "NORAD_CAT_ID": 58168,
    "ELEMENT_SET_NO": 999,
    "REV_AT_EPOCH": 11490,
    "BSTAR": 6.333800000000001e-05,
    "MEAN_MOTION_DOT": 1.518e-05,
    "MEAN_MOTION_DDOT": 0.0,
    "TLE_LINE1": "1 58168U 23166U   25315.27968259  .00001518  00000+0  63338-4 0  9991",
    "TLE_LINE2": "2 58168  53.1595  49.3739 0001757  78.8878 281.2320 15.30216786114901",
    "COMMENT": "Grouped by shell and plane from TLE"
  },
  {
    "OBJECT_NAME": "STARLINK-30771",
    "OBJECT_ID": "23166V",
    "EPOCH": "2025-11-11T07:02:29.599296",
    "MEAN_MOTION": 15.30195085,
    "ECCENTRICITY": 8.85e-05,
    "INCLINATION": 53.1608,
    "RA_OF_ASC_NODE": 49.4561,
    "ARG_OF_PERICENTER": 63.815,
    "MEAN_ANOMALY": 296.2942,
    "EPHEMERIS_TYPE": 0,
    "CLASSIFICATION_TYPE": "U",
    "NORAD_CAT_ID": 58169,
    "ELEMENT_SET_NO": 999,
    "REV_AT_EPOCH": 11505,
    "BSTAR": 0.00010435,
    "MEAN_MOTION_DOT": 2.732e-05,
    "MEAN_MOTION_DDOT": 0.0,
    "TLE_LINE1": "1 58169U 23166V   25315.29339814  .00002732  00000+0  10435-3 0  9991",
    "TLE_LINE2": "2 58169  53.1608  49.4561 0000885  63.8150 296.2942 15.30195085115050",
    "COMMENT": "Grouped by shell and plane from TLE"
  },
  {
    "OBJECT_NAME": "STARLINK-30764",
    "OBJECT_ID": "23166W",
    "EPOCH": "2025-11-11T05:23:52.995552",
    "MEAN_MOTION": 15.30199295,
    "ECCENTRICITY": 7.65e-05,
    "INCLINATION": 53.1615,
    "RA_OF_ASC_NODE": 49.7404,
    "ARG_OF_PERICENTER": 107.1418,
    "MEAN_ANOMALY": 252.9667,
    "EPHEMERIS_TYPE": 0,
    "CLASSIFICATION_TYPE": "U",
    "NORAD_CAT_ID": 58170,
    "ELEMENT_SET_NO": 999,
    "REV_AT_EPOCH": 11504,
    "BSTAR": 3.6547e-05,
    "MEAN_MOTION_DOT": 7.24e-06,
    "MEAN_MOTION_DDOT": 0.0,
    "TLE_LINE1": "1 58170U 23166W   25315.22491893  .00000724  00000+0  36547-4 0  9994",
    "TLE_LINE2": "2 58170  53.1615  49.7404 0000765 107.1418 252.9667 15.30199295115044",
    "COMMENT": "Grouped by shell and plane from TLE"
  },
  {
    "OBJECT_NAME": "STARLINK-30752",
    "OBJECT_ID": "23166X",
    "EPOCH": "2025-11-11T06:53:22.452288",
    "MEAN_MOTION": 15.30197188,
    "ECCENTRICITY": 0.0001338,
    "INCLINATION": 53.1623,
    "RA_OF_ASC_NODE": 49.4108,
    "ARG_OF_PERICENTER": 84.1498,
    "MEAN_ANOMALY": 275.9655,
    "EPHEMERIS_TYPE": 0,
    "CLASSIFICATION_TYPE": "U",
    "NORAD_CAT_ID": 58171,
    "ELEMENT_SET_NO": 999,
    "REV_AT_EPOCH": 11505,
    "BSTAR": 8.0587e-05,
    "MEAN_MOTION_DOT": 2.028e-05,
    "MEAN_MOTION_DDOT": 0.0,
    "TLE_LINE1": "1 58171U 23166X   25315.28706542  .00002028  00000+0  80587-4 0  9993",
    "TLE_LINE2": "2 58171  53.1623  49.4108 0001338  84.1498 275.9655 15.30197188115053",
    "COMMENT": "Grouped by shell and plane from TLE"
  },
  {
    "OBJECT_NAME": "STARLINK-31248",
    "OBJECT_ID": "24017Q",
    "EPOCH": "2025-11-11T07:18:17.707968",
    "MEAN_MOTION": 15.30210699,
    "ECCENTRICITY": 9.34e-05,
    "INCLINATION": 53.162,
    "RA_OF_ASC_NODE": 46.7734,
    "ARG_OF_PERICENTER": 64.5073,
    "MEAN_ANOMALY": 295.6024,
    "EPHEMERIS_TYPE": 0,
    "CLASSIFICATION_TYPE": "U",
    "NORAD_CAT_ID": 58840,
    "ELEMENT_SET_NO": 999,
    "REV_AT_EPOCH": 10186,
    "BSTAR": 0.00010087,
    "MEAN_MOTION_DOT": 2.631e-05,
    "MEAN_MOTION_DDOT": 0.0,
    "TLE_LINE1": "1 58840U 24017Q   25315.30437162  .00002631  00000+0  10087-3 0  9991",
    "TLE_LINE2": "2 58840  53.1620  46.7734 0000934  64.5073 295.6024 15.30210699101866",
    "COMMENT": "Grouped by shell and plane from TLE"
  },
  {
    "OBJECT_NAME": "STARLINK-31410",
    "OBJECT_ID": "24045B",
    "EPOCH": "2025-11-11T05:37:42.273984",
    "MEAN_MOTION": 15.27624326,
    "ECCENTRICITY": 2.49e-05,
    "INCLINATION": 42.9999,
    "RA_OF_ASC_NODE": 41.6617,
    "ARG_OF_PERICENTER": 126.6236,
    "MEAN_ANOMALY": 233.4639,
    "EPHEMERIS_TYPE": 0,
    "CLASSIFICATION_TYPE": "U",
    "NORAD_CAT_ID": 59179,
    "ELEMENT_SET_NO": 999,
    "REV_AT_EPOCH": 9504,
    "BSTAR": 0.0008998000000000001,
    "MEAN_MOTION_DOT": 0.00024615,
    "MEAN_MOTION_DDOT": 0.0,
    "TLE_LINE1": "1 59179U 24045B   25315.23451706  .00024615  00000+0  89980-3 0  9994",
    "TLE_LINE2": "2 59179  42.9999  41.6617 0000249 126.6236 233.4639 15.27624326 95047",
    "COMMENT": "Grouped by shell and plane from TLE"
  },
  {
    "OBJECT_NAME": "STARLINK-31395",
    "OBJECT_ID": "24045C",
    "EPOCH": "2025-11-11T06:09:10.632384",
    "MEAN_MOTION": 15.27591359,
    "ECCENTRICITY": 0.0001531,
    "INCLINATION": 43.004,
    "RA_OF_ASC_NODE": 41.8162,
    "ARG_OF_PERICENTER": 265.3995,
    "MEAN_ANOMALY": 94.6682,
    "EPHEMERIS_TYPE": 0,
    "CLASSIFICATION_TYPE": "U",
    "NORAD_CAT_ID": 59180,
    "ELEMENT_SET_NO": 999,
    "REV_AT_EPOCH": 9504,
    "BSTAR": 0.0,
    "MEAN_MOTION_DOT": -6.444e-05,
    "MEAN_MOTION_DDOT": 0.0,
    "TLE_LINE1": "1 59180U 24045C   25315.25637306 -.00006444  00000+0 -22477-3 0  9990",
    "TLE_LINE2": "2 59180  43.0040  41.8162 0001531 265.3995  94.6682 15.27591359 95047",
    "COMMENT": "Grouped by shell and plane from TLE"
  },
  {
    "OBJECT_NAME": "STARLINK-31411",
    "OBJECT_ID": "24045E",
    "EPOCH": "2025-11-10T17:52:20.655264",
    "MEAN_MOTION": 15.27592658,
    "ECCENTRICITY": 6.38e-05,
    "INCLINATION": 42.9973,
    "RA_OF_ASC_NODE": 43.994,
    "ARG_OF_PERICENTER": 214.3975,
    "MEAN_ANOMALY": 145.6836,
    "EPHEMERIS_TYPE": 0,
    "CLASSIFICATION_TYPE": "U",
    "NORAD_CAT_ID": 59182,
    "ELEMENT_SET_NO": 999,
    "REV_AT_EPOCH": 9497,
    "BSTAR": 0.0,
    "MEAN_MOTION_DOT": -4.68e-05,
    "MEAN_MOTION_DDOT": 0.0,
    "TLE_LINE1": "1 59182U 24045E   25314.74468351 -.00004680  00000+0 -16060-3 0  9998",
    "TLE_LINE2": "2 59182  42.9973  43.9940 0000638 214.3975 145.6836 15.27592658 94970",
    "COMMENT": "Grouped by shell and plane from TLE"
  },
  {
    "OBJECT_NAME": "STARLINK-31382",
    "OBJECT_ID": "24045G",
    "EPOCH": "2025-11-11T06:18:12.080448",
    "MEAN_MOTION": 15.2758463,
    "ECCENTRICITY": 9.74e-05,
    "INCLINATION": 42.9957,
    "RA_OF_ASC_NODE": 41.0007,
    "ARG_OF_PERICENTER": 283.9425,
    "MEAN_ANOMALY": 76.1318,
    "EPHEMERIS_TYPE": 0,
    "CLASSIFICATION_TYPE": "U",
    "NORAD_CAT_ID": 59184,
    "ELEMENT_SET_NO": 999,
    "REV_AT_EPOCH": 9505,
    "BSTAR": 0.00030499,
    "MEAN_MOTION_DOT": 8.141e-05,
    "MEAN_MOTION_DDOT": 0.0,
    "TLE_LINE1": "1 59184U 24045G   25315.26263982  .00008141  00000+0  30499-3 0  9997",
    "TLE_LINE2": "2 59184  42.9957  41.0007 0000974 283.9425  76.1318 15.27584630 95056",
    "COMMENT": "Grouped by shell and plane from TLE"
  },
  {
    "OBJECT_NAME": "STARLINK-31514",
    "OBJECT_ID": "24045K",
    "EPOCH": "2025-11-11T08:00:03.000384",
    "MEAN_MOTION": 15.27670587,
    "ECCENTRICITY": 0.0001262,
    "INCLINATION": 43.0041,
    "RA_OF_ASC_NODE": 41.0423,
    "ARG_OF_PERICENTER": 240.9316,
    "MEAN_ANOMALY": 324.6122,
    "EPHEMERIS_TYPE": 0,
    "CLASSIFICATION_TYPE": "U",
    "NORAD_CAT_ID": 59187,
    "ELEMENT_SET_NO": 999,
    "REV_AT_EPOCH": 582,
    "BSTAR": 0.0,
    "MEAN_MOTION_DOT": -0.00111559,
    "MEAN_MOTION_DDOT": 0.0,
    "TLE_LINE1": "1 59187U 24045K   25315.33336806 -.00111559  00000+0 -40945-2 0  9990",
    "TLE_LINE2": "2 59187  43.0041  41.0423 0001262 240.9316 324.6122 15.27670587  5827",
    "COMMENT": "Grouped by shell and plane from TLE"
  },
  {
    "OBJECT_NAME": "STARLINK-31478",
    "OBJECT_ID": "24045L",
    "EPOCH": "2025-11-11T06:51:31.322016",
    "MEAN_MOTION": 15.27570197,
    "ECCENTRICITY": 0.0002484,
    "INCLINATION": 42.9994,
    "RA_OF_ASC_NODE": 41.1695,
    "ARG_OF_PERICENTER": 288.2012,
    "MEAN_ANOMALY": 71.8569,
    "EPHEMERIS_TYPE": 0,
    "CLASSIFICATION_TYPE": "U",
    "NORAD_CAT_ID": 59188,
    "ELEMENT_SET_NO": 999,
    "REV_AT_EPOCH": 9505,
    "BSTAR": 0.0007409900000000001,
    "MEAN_MOTION_DOT": 0.00020179,
    "MEAN_MOTION_DDOT": 0.0,
    "TLE_LINE1": "1 59188U 24045L   25315.28577919  .00020179  00000+0  74099-3 0  9990",
    "TLE_LINE2": "2 59188  42.9994  41.1695 0002484 288.2012  71.8569 15.27570197 95056",
    "COMMENT": "Grouped by shell and plane from TLE"
  },
  {
    "OBJECT_NAME": "STARLINK-31498",
    "OBJECT_ID": "24045M",
    "EPOCH": "2025-11-11T07:28:30.884448",
    "MEAN_MOTION": 15.27581209,
    "ECCENTRICITY": 0.0001022,
    "INCLINATION": 43.0029,
    "RA_OF_ASC_NODE": 41.3654,
    "ARG_OF_PERICENTER": 278.8428,
    "MEAN_ANOMALY": 81.2308,
    "EPHEMERIS_TYPE": 0,
    "CLASSIFICATION_TYPE": "U",
    "NORAD_CAT_ID": 59189,
    "ELEMENT_SET_NO": 999,
    "REV_AT_EPOCH": 9505,
    "BSTAR": 6.3731e-05,
    "MEAN_MOTION_DOT": 1.492e-05,
    "MEAN_MOTION_DDOT": 0.0,
    "TLE_LINE1": "1 59189U 24045M   25315.31146857  .00001492  00000+0  63731-4 0  9997",
    "TLE_LINE2": "2 59189  43.0029  41.3654 0001022 278.8428  81.2308 15.27581209 95050",
    "COMMENT": "Grouped by shell and plane from TLE"
  },
  {
    "OBJECT_NAME": "STARLINK-31563",
    "OBJECT_ID": "24045N",
    "EPOCH": "2025-11-11T06:34:51.191040",
    "MEAN_MOTION": 15.27575622,
    "ECCENTRICITY": 4.32e-05,
    "INCLINATION": 43.0019,
    "RA_OF_ASC_NODE": 41.0893,
    "ARG_OF_PERICENTER": 269.7803,
    "MEAN_ANOMALY": 90.3,
    "EPHEMERIS_TYPE": 0,
    "CLASSIFICATION_TYPE": "U",
    "NORAD_CAT_ID": 59190,
    "ELEMENT_SET_NO": 999,
    "REV_AT_EPOCH": 9505,
    "BSTAR": 0.0,
    "MEAN_MOTION_DOT": -5.37e-06,
    "MEAN_MOTION_DDOT": 0.0,
    "TLE_LINE1": "1 59190U 24045N   25315.27420360 -.00000537  00000+0 -10022-4 0  9994",
    "TLE_LINE2": "2 59190  43.0019  41.0893 0000432 269.7803  90.3000 15.27575622 95055",
    "COMMENT": "Grouped by shell and plane from TLE"
  }
]